     3.04           N: GNSS NAV DATA    M: MIXED            RINEX VERSION / TYPE
ssrcrin-15.6.1x                         20250101 063000 UTC PGM / RUN BY / DATE 
    18                                                      LEAP SECONDS        
                                                            END OF HEADER       
G08 2025 01 01 07 59 44 4.515056498349E-04 8.299139153678E-12 0.000000000000E+00
     6.000000000000E+01 8.678125000000E+01 4.370896351092E-09 8.123940651194E-01
     4.626810550690E-06 1.026669831481E-02 1.071766018867E-05 5.153735504150E+03
     2.879840000000E+05-1.676380634308E-08-2.948180511803E+00 1.527369022369E-07
     9.502456944617E-01 1.670625000000E+02 3.962343446595E-01-7.865684780200E-09
    -4.193031799462E-10 1.000000000000E+00 2.347000000000E+03 0.000000000000E+00
     2.000000000000E+00 0.000000000000E+00 4.656612873077E-09 6.000000000000E+01
     2.826180000000E+05 4.000000000000E+00
S27 2025 01 01 06 29 20 0.000000000000E+00 0.000000000000E+00 2.826220000000E+05
     2.414140112000E+04-4.426250000000E-03-1.250000000000E-08 6.300000000000E+01
     3.452838776000E+04 2.012500000000E-03 2.125000000000E-07 3.276700000000E+04
     1.305348000000E+02-3.981600000000E-02-6.875000000000E-07 8.900000000000E+01
S28 2025 01 01 06 29 20 0.000000000000E+00 0.000000000000E+00 2.826220000000E+05
     5.096566720000E+03-2.802500000000E-03 7.500000000000E-08 6.300000000000E+01
     4.183734088000E+04 7.143750000000E-04 1.250000000000E-07 3.276700000000E+04
    -1.063400000000E+01 1.624000000000E-03 6.250000000000E-08 8.900000000000E+01
R08 2025 01 01 06 45 00-6.199814379215E-06 0.000000000000E+00 2.826000000000E+05
     1.343517626953E+04 1.078007698059E+00-9.313225746155E-10 0.000000000000E+00
     8.996673339844E+03 2.472574234009E+00-9.313225746155E-10 6.000000000000E+00
     1.977541943359E+04-1.866780281067E+00-1.862645149231E-09 0.000000000000E+00
R10 2025 01 01 06 45 00-2.652406692505E-04-5.456968210638E-12 2.826000000000E+05
     1.384655517578E+04-2.500965118408E+00-9.313225746155E-10 0.000000000000E+00
     1.078731640625E+04-4.128150939941E-01-9.313225746155E-10-7.000000000000E+00
     1.845605175781E+04 2.123228073120E+00-1.862645149231E-09 0.000000000000E+00
R09 2025 01 01 06 45 00 2.295235171914E-04 2.728484105319E-12 2.826000000000E+05
    -2.248680664062E+03-3.101659774780E+00 0.000000000000E+00 0.000000000000E+00
     1.116139990234E+04-3.457269668579E-01-9.313225746155E-10-2.000000000000E+00
     2.283763476562E+04-1.442193984985E-01-2.793967723846E-09 0.000000000000E+00
R07 2025 01 01 06 45 00 9.802542626858E-05 0.000000000000E+00 2.826000000000E+05
     1.174776269531E+04 4.872560501099E-01-1.862645149231E-09 0.000000000000E+00
     2.168950878906E+04 7.488126754761E-01 2.793967723846E-09 5.000000000000E+00
     6.425888671875E+03-3.445904731750E+00-3.725290298462E-09 0.000000000000E+00
R11 2025 01 01 06 45 00 2.104789018631E-06-1.818989403546E-12 2.826000000000E+05
     2.478153466797E+04-4.397201538086E-01-2.793967723846E-09 0.000000000000E+00
     5.040480468750E+03-2.241363525391E-01-0.000000000000E+00 0.000000000000E+00
     3.410472656250E+03 3.529571533203E+00-0.000000000000E+00 0.000000000000E+00
R01 2025 01 01 06 45 00 1.097107306123E-04 9.094947017729E-13 2.826000000000E+05
     6.781382812500E+03 1.152523994446E+00-0.000000000000E+00 0.000000000000E+00
    -1.069377099609E+04 2.804855346680E+00-4.656612873077E-09 1.000000000000E+00
     2.214381933594E+04 1.002318382263E+00 0.000000000000E+00 0.000000000000E+00
R17 2025 01 01 06 45 00 1.535518094897E-04 2.728484105319E-12 2.826000000000E+05
    -3.774921875000E+03 1.873496055603E+00 0.000000000000E+00 0.000000000000E+00
    -1.170826855469E+04-2.420244216919E+00-4.656612873077E-09 4.000000000000E+00
     2.235350830078E+04-9.553880691528E-01 0.000000000000E+00 0.000000000000E+00
R24 2025 01 01 06 45 00-8.637364953756E-05-1.818989403546E-12 2.826000000000E+05
     9.866299316406E+03 8.289442062378E-01-9.313225746155E-10 0.000000000000E+00
    -2.075872216797E+04-1.273876190186E+00-4.656612873077E-09 2.000000000000E+00
     1.107139990234E+04-3.134800910950E+00 1.862645149231E-09 0.000000000000E+00
C45 2025 01 01 06 00 00-2.000267850235E-04-8.397726958265E-12 0.000000000000E+00
     1.000000000000E+00 7.546875000000E+00 4.480543775490E-09-6.568048539642E-01
     3.846362233162E-07 6.750624161214E-04 4.710629582405E-06 5.282627822876E+03
     2.808000000000E+05 2.421438694000E-08 1.792823539737E+00-1.257285475731E-08
     9.492344260068E-01 2.596562500000E+02 6.532944474446E-01-6.977076337520E-09
     1.292910997790E-10 0.000000000000E+00 9.910000000000E+02 0.000000000000E+00
     2.000000000000E+00 0.000000000000E+00 1.910000000000E-08 1.910000000000E-08
     2.826180000000E+05 1.000000000000E+00
S44 2025 01 01 06 30 24 8.423812687397E-07 0.000000000000E+00 2.826320000000E+05
     7.312033760000E+03-4.775625000000E-03-1.500000000000E-07 6.300000000000E+01
     4.147305072000E+04-1.733750000000E-03 2.125000000000E-07 3.276700000000E+04
    -1.707433200000E+03-6.490800000000E-02 4.500000000000E-06 6.000000000000E+01
S36 2025 01 01 06 30 24 0.000000000000E+00 0.000000000000E+00 2.826340000000E+05
     4.200368800000E+04 0.000000000000E+00 0.000000000000E+00 6.300000000000E+01
     3.674846960000E+03 0.000000000000E+00 0.000000000000E+00 3.276700000000E+04
     0.000000000000E+00 0.000000000000E+00 0.000000000000E+00 5.000000000000E+01
S23 2025 01 01 06 29 36 0.000000000000E+00 0.000000000000E+00 2.826500000000E+05
     3.866796400000E+04 0.000000000000E+00 0.000000000000E+00 6.300000000000E+01
     1.681330800000E+04 0.000000000000E+00 0.000000000000E+00 3.276700000000E+04
     0.000000000000E+00 0.000000000000E+00 0.000000000000E+00 1.720000000000E+02
E05 2025 01 01 06 20 00 4.815222055186E-03 3.296918293927E-12 0.000000000000E+00
     8.900000000000E+01-1.754687500000E+02 2.655824911482E-09-1.515807884077E+00
    -8.115544915199E-06 2.355501055717E-05 1.191347837448E-05 5.440621345520E+03
     2.820000000000E+05-2.421438694000E-08 3.133400520080E-01 3.539025783539E-08
     9.635941255860E-01 8.568750000000E+01-2.821910949724E+00-5.173429779830E-09
     2.978695503195E-10 5.170000000000E+02 2.347000000000E+03
     3.120000000000E+00 0.000000000000E+00-1.164153218269E-09 0.000000000000E+00
     2.826650000000E+05
E24 2025 01 01 06 20 00-1.187297515571E-03-2.135891463695E-11 0.000000000000E+00
     8.900000000000E+01-1.425000000000E+01 3.267636110160E-09-2.730868428660E-01
    -5.662441253662E-07 7.853802526370E-04 6.848946213722E-06 5.440610664368E+03
     2.820000000000E+05-5.029141902924E-08 2.416415337375E+00 4.284083843231E-08
     9.620724874379E-01 1.940000000000E+02 9.081496635073E-01-5.400224941045E-09
    -6.053823594624E-10 5.170000000000E+02 2.347000000000E+03
     3.120000000000E+00 0.000000000000E+00-6.286427378654E-09-6.519258022308E-09
     2.826650000000E+05
E15 2025 01 01 06 20 00-1.484121894464E-04-2.273736754432E-12 0.000000000000E+00
     8.900000000000E+01 1.633750000000E+02 2.745114345031E-09-2.628195381173E+00
     7.757917046547E-06 4.391986876726E-04 8.642673492432E-07 5.440605485916E+03
     2.820000000000E+05-4.842877388000E-08-1.775812530817E+00 2.048909664154E-08
     9.996269448061E-01 3.396250000000E+02-1.176106373048E+00-5.639877780690E-09
     3.668009930194E-10 5.170000000000E+02 2.347000000000E+03
     3.120000000000E+00 0.000000000000E+00 2.561137080193E-09 3.725290298462E-09
     2.826650000000E+05
E13 2025 01 01 06 20 00-2.859573578462E-05-3.552713678801E-13 0.000000000000E+00
     8.900000000000E+01 1.488750000000E+02 2.632609658759E-09 2.788649501531E+00
     6.997957825661E-06 3.828954650089E-04 1.173466444016E-07 5.440613193512E+03
     2.820000000000E+05-3.539025783539E-08-1.775737456787E+00 6.891787052155E-08
     9.996704827110E-01 3.530937500000E+02-1.108451859789E+00-5.662378717945E-09
     3.632294156774E-10 5.170000000000E+02 2.347000000000E+03
     3.120000000000E+00 0.000000000000E+00 2.095475792885E-09 3.026798367500E-09
     2.826650000000E+05
E03 2025 01 01 06 20 00-1.636845991015E-04-2.529532139306E-12 0.000000000000E+00
     8.900000000000E+01-1.553750000000E+02 2.825117677491E-09 2.318109618227E-01
    -7.143244147301E-06 2.404359402135E-04 1.138076186180E-05 5.440616256714E+03
     2.820000000000E+05 3.725290298462E-08 3.133342061874E-01 5.587935447693E-08
     9.635799308918E-01 9.725000000000E+01 9.333339533112E-01-5.236646698783E-09
     2.885834492304E-10 5.170000000000E+02 2.347000000000E+03
     3.120000000000E+00 0.000000000000E+00 6.984919309616E-10 1.629814505577E-09
     2.826650000000E+05
E09 2025 01 01 06 20 00-7.214080542326E-04-1.423927642463E-11 0.000000000000E+00
     8.900000000000E+01-1.726875000000E+02 2.666539643508E-09 2.431597201304E+00
    -8.089467883110E-06 1.972352620214E-04 1.300312578678E-05 5.440617933273E+03
     2.820000000000E+05-6.332993507385E-08 3.142260741944E-01 1.676380634308E-08
     9.694466156742E-01 6.125000000000E+01 3.139598084748E-01-5.150571684842E-09
     2.560820954186E-10 5.170000000000E+02 2.347000000000E+03
     3.120000000000E+00 0.000000000000E+00-2.328306436539E-09-1.396983861923E-09
     2.826650000000E+05
E08 2025 01 01 06 20 00-3.932476392947E-04-6.167510946398E-12 0.000000000000E+00
     8.900000000000E+01-1.503125000000E+02 2.722970565511E-09-2.518830609920E-01
    -6.917864084244E-06 1.749175135046E-04 1.143477857113E-05 5.440621007919E+03
     2.820000000000E+05 3.352761268616E-08 3.141825831028E-01-2.793967723846E-08
     9.694185627572E-01 9.634375000000E+01 6.421500194401E-01-5.205216818174E-09
     2.378670509746E-10 5.170000000000E+02 2.347000000000E+03
     3.120000000000E+00 0.000000000000E+00-5.820766091347E-09-5.820766091347E-09
     2.826650000000E+05
